[{"Id":0,"DataVoo":"2020-03-31T01:15:00","NumeroDoVoo":"2047","STA":"2020-03-31T02:40:00","STD":"2020-03-31T01:15:00","Origem":"CWB","Destino":"GRU","QtdPassageiros":0,"MetarOrigem":"2020043013 - METAR SBCT 301300Z 26004KT 8000 NSC 21/13 Q1022=\n","MetarDestino":"2020043013 - METAR SBGR 301300Z 33005KT CAVOK 24/13 Q1022=\n","Matricula":"PRGOW","TipoVoo":"J"},{"Id":0,"DataVoo":"2020-03-31T18:05:00","NumeroDoVoo":"2047","STA":"2020-03-31T19:15:00","STD":"2020-03-31T18:05:00","Origem":"CZS","Destino":"RBR","QtdPassageiros":0,"MetarOrigem":"2020033118 - Mensagem METAR de 'SBCZ' para 31/03/2020 as 18(UTC) n達o localizada na base de dados da REDEMET\n","MetarDestino":"2020033119 - Mensagem METAR de 'SBRB' para 31/03/2020 as 19(UTC) n達o localizada na base de dados da REDEMET\n","Matricula":"XXXXX","TipoVoo":"J"},{"Id":0,"DataVoo":"2020-03-31T19:45:00","NumeroDoVoo":"2047","STA":"2020-03-31T22:55:00","STD":"2020-03-31T19:45:00","Origem":"RBR","Destino":"BSB","QtdPassageiros":0,"MetarOrigem":"2020033119 - Mensagem METAR de 'SBRB' para 31/03/2020 as 19(UTC) n達o localizada na base de dados da REDEMET\n","MetarDestino":"2020033122 - Mensagem METAR de 'SBBR' para 31/03/2020 as 22(UTC) n達o localizada na base de dados da REDEMET\n","Matricula":"XXXXX","TipoVoo":"J"}]